LON,LAT,NUMBER,STREET,UNIT,CITY,DISTRICT,REGION,POSTCODE,ID,HASH
-76.7381893,17.9929247,,,,,,,,node/664241699,a652d2b2122e42fd
-76.7365191,17.9876072,2A,August Town Road,,,,,,node/4244655770,96291d3c9c627e79
-76.7358595,17.9884985,26,Bedward Crescent,,,,,,node/4244656595,f51229fa4555676e
-76.7359986,17.9880359,26,Bedward Crescent,,,,,,node/4244656596,264a2aa5c6696f3e
-76.7359922,17.9881237,24,Bedward Crescent,,,,,,node/4244656601,9ac04ec8e9690bb2
-76.7360457,17.988217,32,Bedward Crescent,,,,,,node/4244656606,d7fbfbe54fbe4dac
-76.7360986,17.9885387,71,Bedward Crescent,,,,,,node/4244656653,e0ec1d827d8030cf
-76.7360524,17.9887338,76,Bedward Crescent,,,,,,node/4244656654,ea5c4ae1db28f17a
-76.735996,17.9889869,72,Bedward Crescent,,,,,,node/4244656655,3dffc602739d4093
-76.7359127,17.9890373,70,Bedward Crescent,,,,,,node/4244656660,c5cca6dce6107dbe
-76.7361446,17.9897394,9,July Road,,"Kingston, Jamaica",,,,node/4244688764,891c299c69fdeaba
-76.7352313,17.989197,29-31,Bedward Crescent,,"Kingston, Jamaica",,,,node/4244688782,03148aa7d949c77b
-76.7358096,17.9881366,3,Bedward Crescent,,,,,,node/4244822309,cf43b73f70fee2f1
-76.7356646,17.9880754,5,Bedward Crescent,,,,,,node/4244822310,31ed68c6f1b3e0e2
-76.7355522,17.9880663,7,Bedward Crescent,,,,,,node/4244822312,0188531aa0deff48
-76.7359222,17.9880361,,,,,,,,node/4244822343,cdb0e1230ec1ef78
-76.7360097,17.9879588,,Bedward Crescent,,,,,,node/4244822344,d8423dafeb8879c4
-76.7362551,17.9898166,9,July Road,,"Kingston, Jamaica",,,,node/4257848711,c81a7dc2717ab768
-76.7381783,17.993022,,August Town Road,,August Town,,,,node/4303367521,737e5726683b0d28
-76.73748,17.9922292,1,Barrett Drive,,August Town,,,,node/4304865856,8e540c29f0ddb23e
